GLOBALSTAR M068         
1 32266U 07048D   24343.89469076 -.00000061  00000+0  23985-3 0  9990
2 32266  51.9856 162.3257 0002107  86.3884  61.0527 12.62811032793510
GLOBALSTAR M079         
1 37188U 10054A   24343.76385514 -.00000089  00000+0  83518-4 0  9998
2 37188  52.0057 359.4670 0000218 167.1911   4.2528 12.62268014652409
GLOBALSTAR M074         
1 37189U 10054B   24343.78992771 -.00000091  00000+0  71903-4 0  9998
2 37189  52.0034 358.7374 0000283  54.6241 116.6108 12.62259980653018
GLOBALSTAR M076         
1 37190U 10054C   24343.81665795 -.00000076  00000+0  15242-3 0  9993
2 37190  52.0049 358.8123 0000127 331.4962 199.7082 12.62274485652730
GLOBALSTAR M077         
1 37191U 10054D   24343.92817778 -.00000082  00000+0  11967-3 0  9993
2 37191  52.0085 315.2746 0000436  51.5509 326.4043 12.62267892653123
GLOBALSTAR M075         
1 37192U 10054E   24343.90871145 -.00000091  00000+0  72662-4 0  9990
2 37192  51.9967  40.8925 0000429 110.5990  60.3899 12.62269843651818
GLOBALSTAR M073         
1 37193U 10054F   24343.87897267 -.00000088  00000+0  89095-4 0  9994
2 37193  52.0073 314.6566 0000318  33.0881   2.8374 12.62273657653805
GLOBALSTAR M083         
1 37739U 11033A   24343.90198421 -.00000074  00000+0  16859-3 0  9990
2 37739  51.9862 263.5790 0000671  76.3733   3.9934 12.62269124622820
GLOBALSTAR M088         
1 37740U 11033B   24343.97317470 -.00000079  00000+0  13725-3 0  9990
2 37740  51.9702 169.0122 0001110  98.7820  65.8591 12.62266360618378
GLOBALSTAR M091         
1 37741U 11033C   24343.90825199 -.00000076  00000+0  15301-3 0  9995
2 37741  51.9976 132.4253 0001165 118.9803  49.3469 12.62271618619157
GLOBALSTAR M085         
1 37742U 11033D   24343.73341420 -.00000083  00000+0  11797-3 0  9990
2 37742  51.9871  84.1623 0000935 131.7018  22.9275 12.62269983619649
GLOBALSTAR M081         
1 37743U 11033E   24343.83778528 -.00000094  00000+0  56203-4 0  9999
2 37743  51.9961  86.5138 0000667 142.2153   7.0260 12.62273900619806
GLOBALSTAR M089         
1 37744U 11033F   24343.56061080 -.00000080  00000+0  13325-3 0  9990
2 37744  51.9950  41.6243 0000210  91.5582  56.6076 12.62273082620864
GLOBALSTAR M084         
1 38040U 11080A   24343.95406182 -.00000071  00000+0  18312-3 0  9992
2 38040  52.0013 267.6131 0000899  42.1811  35.0259 12.62272118598645
GLOBALSTAR M080         
1 38041U 11080B   24343.92919495 -.00000077  00000+0  14691-3 0  9998
2 38041  52.0065 269.2301 0000798  23.5426  59.8318 12.62269733598765
GLOBALSTAR M082         
1 38042U 11080C   24343.92689243 -.00000078  00000+0  14317-3 0  9990
2 38042  52.0059 224.6632 0001306  92.0191 281.2585 12.62270887599475
GLOBALSTAR M092         
1 38043U 11080D   24343.90148385 -.00000080  00000+0  13470-3 0  9998
2 38043  52.0099 315.1057 0000567  53.1765 324.6724 12.62270179597929
GLOBALSTAR M090         
1 38044U 11080E   24343.97293473 -.00000077  00000+0  15058-3 0  9995
2 38044  51.9871 218.5756 0001044  86.4947  16.4737 12.62264751599594
GLOBALSTAR M086         
1 38045U 11080F   24343.83544622 -.00000086  00000+0  97964-4 0  9993
2 38045  51.9879 219.5300 0000130  54.3794  23.9944 12.62264490599524
GLOBALSTAR M097         
1 39072U 13005A   24343.76583212 -.00000083  00000+0  11770-3 0  9990
2 39072  52.0022 134.0950 0000934 117.5335 242.5626 12.62268244546769
GLOBALSTAR M093         
1 39073U 13005B   24343.73888121 -.00000083  00000+0  11620-3 0  9999
2 39073  51.9792 127.7809 0001018 121.6593 238.4372 12.62277078546712
GLOBALSTAR M094         
1 39074U 13005C   24343.89754904 -.00000093  00000+0  61176-4 0  9991
2 39074  51.9979  41.4922 0000572 155.2860 204.8034 12.62265925548343
GLOBALSTAR M096         
1 39075U 13005D   24343.83156016 -.00000085  00000+0  10326-3 0  9997
2 39075  52.0076  90.0579 0000939 135.9585 224.1356 12.62265401547258
GLOBALSTAR M078         
1 39076U 13005E   24343.88381998 -.00000090  00000+0  78912-4 0  9994
2 39076  51.9840 174.6656 0001881 105.8140 254.2934 12.62267458545888
GLOBALSTAR M095         
1 39077U 13005F   24343.91065600 -.00000085  00000+0  10406-3 0  9995
2 39077  51.9770 171.8783 0001481 112.8335 247.2688 12.62269481545742
GLOBALSTAR M087         
1 52888U 22064A   24343.87445244 -.00000077  00000+0  10406-3 0  9997
2 52888  51.9775 320.3742 0035695  37.5267 322.8112 13.30672356120880
